IRIDIUM 33 DEB          
1 35616U 97051QN  26191.14895867  .00007078  00000+0  77544-3 0  9991
2 35616  86.3498 249.6601 0010680 150.3518 209.8315 14.87591738906823
IRIDIUM 33 DEB          
1 35618U 97051QQ  26178.55203748  .00001353  00000+0  32048-3 0  9994
2 35618  86.3394 267.3674 0030496  78.4460 282.0167 14.53076507682510
IRIDIUM 33 DEB          
1 35620U 97051QS  26190.27393289  .00004366  00000+0  11910-2 0  9991
2 35620  86.3856 129.2015 0128225 294.7944  63.9962 14.42387337629681
IRIDIUM 33 DEB          
1 35622U 97051QU  26188.38129604  .00096340  00000+0  32410-2 0  9991
2 35622  86.1851 159.7939 0011189 153.5259 357.7055 15.30351201904907
IRIDIUM 33 DEB          
1 35625U 97051QX  26190.05868353  .00002052  00000+0  71660-3 0  9990
2 35625  86.1901 291.5450 0101599 245.7922 236.3127 14.31993373690204
IRIDIUM 33 DEB          
1 35628U 97051RA  26190.99186062  .00003802  00000+0  61962-3 0  9994
2 35628  86.3545 275.4759 0009105 340.3302  19.7561 14.70731223895197
IRIDIUM 33 DEB          
1 35631U 97051RD  26190.56391527  .00000498  00000+0  12889-3 0  9997
2 35631  86.3668 291.0252 0018391 139.5350 280.2231 14.47840200902184
IRIDIUM 33 DEB          
1 35680U 97051RJ  26186.06004808  .00002074  00000+0  81560-3 0  9998
2 35680  86.1013 290.8765 0145471 349.2008 131.2650 14.23217944636053
IRIDIUM 33 DEB          
1 35744U 97051RX  26190.35304325  .00003256  00000+0  49330-3 0  9995
2 35744  86.3271 230.9243 0020099 189.2353 170.8498 14.73735415904017
IRIDIUM 33 DEB          
1 35797U 97051SF  26192.41424715  .00005528  00000+0  58835-3 0  9992
2 35797  86.3329 232.6427 0013373 130.6013 229.6378 14.88706158904694
IRIDIUM 33 DEB          
1 35806U 97051SQ  26186.58615170  .00006329  00000+0  13279-2 0  9993
2 35806  86.3420 290.2609 0015690  98.8856 261.4131 14.59469709893103
IRIDIUM 33 DEB          
1 35809U 97051ST  26182.92946611  .00009921  00000+0  13074-2 0  9991
2 35809  86.3246 243.3531 0008839 259.7863 100.2362 14.79993096897796
IRIDIUM 33 DEB          
1 35846U 97051SW  26190.13203072  .00001266  00000+0  36488-3 0  9990
2 35846  86.3766 329.8660 0017286 198.7775 161.2791 14.43930744743354
IRIDIUM 33 DEB          
1 35848U 97051SY  26190.99878979  .00007252  00000+0  87466-3 0  9993
2 35848  86.3867 281.5821 0008534 175.2329 184.8977 14.83671813697888
IRIDIUM 33 DEB          
1 35850U 97051TA  26192.46873280  .00004502  00000+0  54083-3 0  9994
2 35850  86.3460 247.9290 0010248 166.6404 193.5092 14.83743107744771
IRIDIUM 33 DEB          
1 35915U 97051TY  26188.44562491  .00007362  00000+0  83031-3 0  9990
2 35915  86.3398 247.9953 0011150 178.0877 182.0392 14.86411017111514
IRIDIUM 33 DEB          
1 35918U 97051UB  26186.73580039  .00004791  00000+0  11552-2 0  9992
2 35918  86.4027 347.7063 0025174 199.0553 221.6521 14.52864470881823
IRIDIUM 33 DEB          
1 35929U 97051UN  26186.79954360  .00046964  00000+0  21883-2 0  9998
2 35929  86.3391 214.2681 0008493   3.7259 356.4045 15.19668439908763
IRIDIUM 33 DEB          
1 36011U 97051US  26190.64066037  .00000866  00000+0  25788-3 0  9995
2 36011  86.3415 305.6689 0016509 249.2244 171.6617 14.41971273675506
IRIDIUM 33 DEB          
1 36012U 97051UT  26192.05292893  .00002062  00000+0  73815-3 0  9998
2 36012  86.4419 222.5089 0216085 311.3778  46.9003 14.21457259684703
IRIDIUM 33 DEB          
1 36028U 97051VK  26186.77924820  .00034179  00000+0  23219-2 0  9995
2 36028  86.3177 209.3863 0015343  39.8899 320.3461 15.06128326902000
IRIDIUM 33 DEB          
1 36080U 97051VM  26186.55922257  .00002013  00000+0  54245-3 0  9997
2 36080  86.3205 278.6879 0017342 193.0831 166.9925 14.47430522503763
IRIDIUM 33 DEB          
1 36083U 97051VQ  26192.57393966  .00000752  00000+0  21386-3 0  9996
2 36083  86.3440 303.3448 0024224 246.3836 113.4822 14.43956677884911
IRIDIUM 33 DEB          
1 36390U 97051VU  26188.79773162  .00002942  00000+0  41916-3 0  9990
2 36390  86.2901 204.2620 0029895 164.2649 195.9507 14.76154496693146
IRIDIUM 33 DEB          
1 36483U 97051VZ  26190.64446818  .00001081  00000+0  29442-3 0  9998
2 36483  86.3807 323.0310 0010486 145.6907 214.4975 14.46545527681652
IRIDIUM 33 DEB          
1 36490U 97051WG  26189.49123866  .00005819  00000+0  74351-3 0  9994
2 36490  86.3614 276.3150 0004413  88.1939 271.9788 14.81256581895551
IRIDIUM 33 DEB          
1 36493U 97051WK  26192.52464379  .00002688  00000+0  46468-3 0  9991
2 36493  86.3558 277.7871 0009053   1.7825 358.3420 14.68030783776084
IRIDIUM 33 DEB          
1 36497U 97051WP  26186.66549972  .00011949  00000+0  21192-2 0  9992
2 36497  86.1553 158.0137 0047362 137.6971 222.7912 14.66421489686527
IRIDIUM 33 DEB          
1 37136U 97051XG  26184.91862832  .00001600  00000+0  61267-3 0  9993
2 37136  86.1710 248.1008 0077871  55.5849 305.2672 14.28364736673986
IRIDIUM 33 DEB          
1 37548U 97051XH  26181.11194211  .00003703  00000+0  89472-3 0  9992
2 37548  86.3500 316.5040 0022777 241.1042 118.7879 14.52744813684254
IRIDIUM 33 DEB          
1 37550U 97051XK  26191.02193271  .00003858  00000+0  63568-3 0  9990
2 37550  86.3757 290.8660 0005579 113.9831 246.1969 14.70271995894059
IRIDIUM 33 DEB          
1 37562U 97051XX  26191.11921591  .00002626  00000+0  55867-3 0  9992
2 37562  86.3745 312.1562 0026078 117.4418   2.7914 14.58476903893782
IRIDIUM 33 DEB          
1 37565U 97051YA  26191.52405963  .00001029  00000+0  24688-3 0  9993
2 37565  86.3477 278.1147 0015092  98.4454 261.8464 14.52439942688819
IRIDIUM 33 DEB          
1 38017U 97051YD  26189.13071548  .00006727  00000+0  15407-2 0  9996
2 38017  86.3307  75.5729 0078757 131.1032 229.7011 14.53566294644111
IRIDIUM 33 DEB          
1 38022U 97051YJ  26188.54918981  .00002086  00000+0  61185-3 0  9996
2 38022  86.2675 285.7484 0046097  86.5651 274.0821 14.42802459721740
IRIDIUM 33 DEB          
1 38028U 97051YQ  26189.48499872  .00000685  00000+0  18268-3 0  9996
2 38028  86.3256 269.9118 0029486 149.7984 210.4926 14.46773131684986
IRIDIUM 33 DEB          
1 38228U 97051ZC  26192.62988604  .00000375  00000+0  14165-3 0  9992
2 38228  86.2955 318.8012 0062344 229.9913 188.6766 14.27620662877906
IRIDIUM 33 DEB          
1 38241U 97051ZR  26187.94444913  .00001915  00000+0  42928-3 0  9995
2 38241  86.3200 259.5112 0005913  90.3179 269.8706 14.56138694632007
IRIDIUM 33 DEB          
1 38474U 97051AAB 26192.53726725  .00001042  00000+0  25327-3 0  9993
2 38474  86.3470 278.1259 0028681 100.8442 259.5994 14.51638539683751
IRIDIUM 33 DEB          
1 38477U 97051AAE 26187.84419443  .00002458  00000+0  18755-2 0  9998
2 38477  86.4061  29.2621 0394899 359.6210   0.4588 13.62154182574820
IRIDIUM 33 DEB          
1 39777U 97051AAJ 26191.98448173  .00003479  00000+0  68171-3 0  9996
2 39777  85.9579  72.4981 0054350 191.5780 168.4185 14.61572411632519
IRIDIUM 33 DEB          
1 39778U 97051AAK 26191.30136924  .00001931  00000+0  43508-3 0  9999
2 39778  86.3763 312.1365 0008257  54.6975 305.5004 14.55895728637409
IRIDIUM 33 DEB          
1 39781U 97051AAN 26185.22003520  .00010998  00000+0  40228-2 0  9990
2 39781  86.3788 173.9014 0165466 343.3313  30.0613 14.25510702110016
IRIDIUM 33 DEB          
1 40996U 97051ABJ 26190.96272285  .00032447  00000+0  17447-2 0  9993
2 40996  86.3457 262.1446 0001384  35.8479  87.2346 15.14735223656369
IRIDIUM 33 DEB          
1 40998U 97051ABL 26191.13134553  .00000946  00000+0  26093-3 0  9997
2 40998  86.3842 324.1722 0009704 102.7725  22.1135 14.45811725 97062
IRIDIUM 33 DEB          
1 46435U 97051ABN 26190.04641498  .00004334  00000+0  10933-2 0  9999
2 46435  86.2739 103.5663 0198144 312.6150 105.3029 14.39718700109086
IRIDIUM 33 DEB          
1 46734U 97051ABR 26183.54950497  .00002995  00000+0  87773-3 0  9998
2 46734  86.2619 274.1556 0039247  30.1181  27.4005 14.43173540659209
IRIDIUM 33 DEB          
1 46965U 97051ABX 26190.41185716  .00001529  00000+0  30188-3 0  9992
2 46965  86.3325 248.0146 0017472 342.6615  31.6211 14.61729049653159
IRIDIUM 33 DEB          
1 46972U 97051ACE 26192.08951663  .00000974  00000+0  23805-3 0  9998
2 46972  86.3876 308.7971 0011331 119.3591   3.5278 14.51571595646230
IRIDIUM 33 DEB          
1 46974U 97051ACG 26192.25229693  .00005391  00000+0  13608-2 0  9997
2 46974  86.2998  12.9964 0086722 205.1184 154.5791 14.48635106605529
IRIDIUM 33 DEB          
1 46979U 97051ACM 26185.09984075  .00137835  00000+0  74541-2 0  9990
2 46979  86.3189 312.2213 0020231 211.0966 148.9078 15.13879505384791
